[{"OBJECT_NAME":"STARLINK-35604","OBJECT_ID":"2025-278M","EPOCH":"2026-02-24T09:26:57.409728","MEAN_MOTION":15.27583395,"ECCENTRICITY":7.29e-5,"INCLINATION":43.0012,"RA_OF_ASC_NODE":189.6276,"ARG_OF_PERICENTER":271.7323,"MEAN_ANOMALY":88.3445,"EPHEMERIS_TYPE":0,"CLASSIFICATION_TYPE":"U","NORAD_CAT_ID":66802,"ELEMENT_SET_NO":999,"REV_AT_EPOCH":1317,"BSTAR":0.00092779,"MEAN_MOTION_DOT":0.00025359,"MEAN_MOTION_DDOT":0},{"OBJECT_NAME":"STARLINK-35565","OBJECT_ID":"2025-278N","EPOCH":"2026-02-24T09:36:12.449376","MEAN_MOTION":15.27584062,"ECCENTRICITY":0.0003615,"INCLINATION":42.9982,"RA_OF_ASC_NODE":189.6799,"ARG_OF_PERICENTER":291.78,"MEAN_ANOMALY":68.2667,"EPHEMERIS_TYPE":0,"CLASSIFICATION_TYPE":"U","NORAD_CAT_ID":66803,"ELEMENT_SET_NO":999,"REV_AT_EPOCH":1317,"BSTAR":0.00091931,"MEAN_MOTION_DOT":0.00025128,"MEAN_MOTION_DDOT":0},{"OBJECT_NAME":"STARLINK-36038","OBJECT_ID":"2025-278P","EPOCH":"2026-02-24T08:48:05.903136","MEAN_MOTION":15.27597189,"ECCENTRICITY":8.47e-5,"INCLINATION":42.9966,"RA_OF_ASC_NODE":189.4289,"ARG_OF_PERICENTER":25.7219,"MEAN_ANOMALY":334.3675,"EPHEMERIS_TYPE":0,"CLASSIFICATION_TYPE":"U","NORAD_CAT_ID":66804,"ELEMENT_SET_NO":999,"REV_AT_EPOCH":1317,"BSTAR":0.00093851,"MEAN_MOTION_DOT":0.00025667,"MEAN_MOTION_DDOT":0},{"OBJECT_NAME":"STARLINK-36049","OBJECT_ID":"2025-278Q","EPOCH":"2026-02-24T09:39:54.857664","MEAN_MOTION":15.27582821,"ECCENTRICITY":0.0001525,"INCLINATION":42.9988,"RA_OF_ASC_NODE":189.6989,"ARG_OF_PERICENTER":276.9268,"MEAN_ANOMALY":83.1411,"EPHEMERIS_TYPE":0,"CLASSIFICATION_TYPE":"U","NORAD_CAT_ID":66805,"ELEMENT_SET_NO":999,"REV_AT_EPOCH":1317,"BSTAR":0.00085929,"MEAN_MOTION_DOT":0.00023461,"MEAN_MOTION_DDOT":0},{"OBJECT_NAME":"STARLINK-36069","OBJECT_ID":"2025-278R","EPOCH":"2026-02-24T09:45:27.648000","MEAN_MOTION":15.27580179,"ECCENTRICITY":0.0001448,"INCLINATION":42.9996,"RA_OF_ASC_NODE":189.7292,"ARG_OF_PERICENTER":263.5123,"MEAN_ANOMALY":96.5564,"EPHEMERIS_TYPE":0,"CLASSIFICATION_TYPE":"U","NORAD_CAT_ID":66806,"ELEMENT_SET_NO":999,"REV_AT_EPOCH":1317,"BSTAR":0.00054458,"MEAN_MOTION_DOT":0.00014754,"MEAN_MOTION_DDOT":0},{"OBJECT_NAME":"STARLINK-36000","OBJECT_ID":"2025-278S","EPOCH":"2026-02-24T08:53:38.599296","MEAN_MOTION":15.27607007,"ECCENTRICITY":0.0001942,"INCLINATION":42.9938,"RA_OF_ASC_NODE":189.4443,"ARG_OF_PERICENTER":167.3038,"MEAN_ANOMALY":192.7863,"EPHEMERIS_TYPE":0,"CLASSIFICATION_TYPE":"U","NORAD_CAT_ID":66807,"ELEMENT_SET_NO":999,"REV_AT_EPOCH":1317,"BSTAR":0.0011612,"MEAN_MOTION_DOT":0.00031856,"MEAN_MOTION_DDOT":0},{"OBJECT_NAME":"STARLINK-36071","OBJECT_ID":"2025-278T","EPOCH":"2026-02-24T09:56:21.132672","MEAN_MOTION":15.27596933,"ECCENTRICITY":8.9e-5,"INCLINATION":43.0016,"RA_OF_ASC_NODE":188.9203,"ARG_OF_PERICENTER":201.2495,"MEAN_ANOMALY":158.832,"EPHEMERIS_TYPE":0,"CLASSIFICATION_TYPE":"U","NORAD_CAT_ID":66808,"ELEMENT_SET_NO":999,"REV_AT_EPOCH":1318,"BSTAR":0.0011499,"MEAN_MOTION_DOT":0.00031533,"MEAN_MOTION_DDOT":0},{"OBJECT_NAME":"STARLINK-35979","OBJECT_ID":"2025-278U","EPOCH":"2026-02-24T09:47:18.362688","MEAN_MOTION":15.27569876,"ECCENTRICITY":0.0001295,"INCLINATION":43.0007,"RA_OF_ASC_NODE":189.7343,"ARG_OF_PERICENTER":264.2283,"MEAN_ANOMALY":95.842,"EPHEMERIS_TYPE":0,"CLASSIFICATION_TYPE":"U","NORAD_CAT_ID":66809,"ELEMENT_SET_NO":999,"REV_AT_EPOCH":1317,"BSTAR":0.00037804,"MEAN_MOTION_DOT":0.00010152,"MEAN_MOTION_DDOT":0},{"OBJECT_NAME":"STARLINK-36046","OBJECT_ID":"2025-278V","EPOCH":"2026-02-24T09:25:05.659968","MEAN_MOTION":15.2758341,"ECCENTRICITY":3.74e-5,"INCLINATION":42.9912,"RA_OF_ASC_NODE":189.6148,"ARG_OF_PERICENTER":346.8279,"MEAN_ANOMALY":13.2563,"EPHEMERIS_TYPE":0,"CLASSIFICATION_TYPE":"U","NORAD_CAT_ID":66810,"ELEMENT_SET_NO":999,"REV_AT_EPOCH":1317,"BSTAR":0.0012281,"MEAN_MOTION_DOT":0.00033691,"MEAN_MOTION_DDOT":0},{"OBJECT_NAME":"STARLINK-36045","OBJECT_ID":"2025-278W","EPOCH":"2026-02-24T10:48:09.836640","MEAN_MOTION":15.27573337,"ECCENTRICITY":0.0001452,"INCLINATION":42.9986,"RA_OF_ASC_NODE":189.1877,"ARG_OF_PERICENTER":261.0408,"MEAN_ANOMALY":99.0279,"EPHEMERIS_TYPE":0,"CLASSIFICATION_TYPE":"U","NORAD_CAT_ID":66811,"ELEMENT_SET_NO":999,"REV_AT_EPOCH":1318,"BSTAR":0.00054754,"MEAN_MOTION_DOT":0.00014832,"MEAN_MOTION_DDOT":0},{"OBJECT_NAME":"STARLINK-36054","OBJECT_ID":"2025-278X","EPOCH":"2026-02-24T09:10:18.075360","MEAN_MOTION":15.2759266,"ECCENTRICITY":0.000411,"INCLINATION":43.0001,"RA_OF_ASC_NODE":189.5352,"ARG_OF_PERICENTER":284.8739,"MEAN_ANOMALY":75.1657,"EPHEMERIS_TYPE":0,"CLASSIFICATION_TYPE":"U","NORAD_CAT_ID":66812,"ELEMENT_SET_NO":999,"REV_AT_EPOCH":1317,"BSTAR":0.0011814,"MEAN_MOTION_DOT":0.00032407,"MEAN_MOTION_DDOT":0},{"OBJECT_NAME":"STARLINK-36042","OBJECT_ID":"2025-278Y","EPOCH":"2026-02-24T10:07:26.664096","MEAN_MOTION":15.27603104,"ECCENTRICITY":0.0003799,"INCLINATION":43.0012,"RA_OF_ASC_NODE":188.97,"ARG_OF_PERICENTER":153.2861,"MEAN_ANOMALY":206.8187,"EPHEMERIS_TYPE":0,"CLASSIFICATION_TYPE":"U","NORAD_CAT_ID":66813,"ELEMENT_SET_NO":999,"REV_AT_EPOCH":1318,"BSTAR":0.00099554,"MEAN_MOTION_DOT":0.00027257,"MEAN_MOTION_DDOT":0},{"OBJECT_NAME":"STARLINK-35984","OBJECT_ID":"2025-278Z","EPOCH":"2026-02-24T10:11:08.992896","MEAN_MOTION":15.27578164,"ECCENTRICITY":0.0001691,"INCLINATION":43.0004,"RA_OF_ASC_NODE":188.9906,"ARG_OF_PERICENTER":270.4069,"MEAN_ANOMALY":89.6588,"EPHEMERIS_TYPE":0,"CLASSIFICATION_TYPE":"U","NORAD_CAT_ID":66814,"ELEMENT_SET_NO":999,"REV_AT_EPOCH":1318,"BSTAR":0.00092545,"MEAN_MOTION_DOT":0.0002529,"MEAN_MOTION_DDOT":0},{"OBJECT_NAME":"STARLINK-35985","OBJECT_ID":"2025-278AA","EPOCH":"2026-02-24T09:04:45.248736","MEAN_MOTION":15.2758318,"ECCENTRICITY":0.0002598,"INCLINATION":42.9988,"RA_OF_ASC_NODE":189.5011,"ARG_OF_PERICENTER":280.6724,"MEAN_ANOMALY":79.3835,"EPHEMERIS_TYPE":0,"CLASSIFICATION_TYPE":"U","NORAD_CAT_ID":66815,"ELEMENT_SET_NO":999,"REV_AT_EPOCH":1438,"BSTAR":0.0010037,"MEAN_MOTION_DOT":0.00027464,"MEAN_MOTION_DDOT":0},{"OBJECT_NAME":"STARLINK-36098","OBJECT_ID":"2025-278AB","EPOCH":"2026-02-24T09:58:12.435744","MEAN_MOTION":15.27584472,"ECCENTRICITY":0.0002441,"INCLINATION":42.9996,"RA_OF_ASC_NODE":188.9236,"ARG_OF_PERICENTER":293.9639,"MEAN_ANOMALY":66.0957,"EPHEMERIS_TYPE":0,"CLASSIFICATION_TYPE":"U","NORAD_CAT_ID":66816,"ELEMENT_SET_NO":999,"REV_AT_EPOCH":1318,"BSTAR":0.00089573,"MEAN_MOTION_DOT":0.00024473,"MEAN_MOTION_DDOT":0},{"OBJECT_NAME":"STARLINK-35995","OBJECT_ID":"2025-278AC","EPOCH":"2026-02-24T10:33:21.680928","MEAN_MOTION":15.275925,"ECCENTRICITY":0.0001315,"INCLINATION":43.0002,"RA_OF_ASC_NODE":189.1058,"ARG_OF_PERICENTER":254.0003,"MEAN_ANOMALY":106.0704,"EPHEMERIS_TYPE":0,"CLASSIFICATION_TYPE":"U","NORAD_CAT_ID":66817,"ELEMENT_SET_NO":999,"REV_AT_EPOCH":1318,"BSTAR":0.0011961,"MEAN_MOTION_DOT":0.00032812,"MEAN_MOTION_DDOT":0}]
