STARLINK-35604          
1 66802U 25278M   26055.39372002  .00025359  00000+0  92779-3 0  9990
2 66802  43.0012 189.6276 0000729 271.7323  88.3445 15.27583395 13178
STARLINK-35565          
1 66803U 25278N   26055.40014409  .00025128  00000+0  91931-3 0  9990
2 66803  42.9982 189.6799 0003615 291.7800  68.2667 15.27584062 13177
STARLINK-36038          
1 66804U 25278P   26055.36673499  .00025667  00000+0  93851-3 0  9997
2 66804  42.9966 189.4289 0000847  25.7219 334.3675 15.27597189 13175
STARLINK-36049          
1 66805U 25278Q   26055.40271826  .00023461  00000+0  85929-3 0  9998
2 66805  42.9988 189.6989 0001525 276.9268  83.1411 15.27582821 13171
STARLINK-36069          
1 66806U 25278R   26055.40657000  .00014754  00000+0  54458-3 0  9999
2 66806  42.9996 189.7292 0001448 263.5123  96.5564 15.27580179 13176
STARLINK-36000          
1 66807U 25278S   26055.37058564  .00031856  00000+0  11612-2 0  9992
2 66807  42.9938 189.4443 0001942 167.3038 192.7863 15.27607007 13174
STARLINK-36071          
1 66808U 25278T   26055.41413348  .00031533  00000+0  11499-2 0  9998
2 66808  43.0016 188.9203 0000890 201.2495 158.8320 15.27596933 13185
STARLINK-35979          
1 66809U 25278U   26055.40785142  .00010152  00000+0  37804-3 0  9995
2 66809  43.0007 189.7343 0001295 264.2283  95.8420 15.27569876 13170
STARLINK-36046          
1 66810U 25278V   26055.39242662  .00033691  00000+0  12281-2 0  9994
2 66810  42.9912 189.6148 0000374 346.8279  13.2563 15.27583410 13178
STARLINK-36045          
1 66811U 25278W   26055.45011385  .00014832  00000+0  54754-3 0  9996
2 66811  42.9986 189.1877 0001452 261.0408  99.0279 15.27573337 13188
STARLINK-36054          
1 66812U 25278X   26055.38215365  .00032407  00000+0  11814-2 0  9990
2 66812  43.0001 189.5352 0004110 284.8739  75.1657 15.27592660 13179
STARLINK-36042          
1 66813U 25278Y   26055.42183639  .00027257  00000+0  99554-3 0  9999
2 66813  43.0012 188.9700 0003799 153.2861 206.8187 15.27603104 13187
STARLINK-35984          
1 66814U 25278Z   26055.42440964  .00025290  00000+0  92545-3 0  9995
2 66814  43.0004 188.9906 0001691 270.4069  89.6588 15.27578164 13187
STARLINK-35985          
1 66815U 25278AA  26055.37830149  .00027464  00000+0  10037-2 0  9998
2 66815  42.9988 189.5011 0002598 280.6724  79.3835 15.27583180 14387
STARLINK-36098          
1 66816U 25278AB  26055.41542171  .00024473  00000+0  89573-3 0  9998
2 66816  42.9996 188.9236 0002441 293.9639  66.0957 15.27584472 13188
STARLINK-35995          
1 66817U 25278AC  26055.43983427  .00032812  00000+0  11961-2 0  9995
2 66817  43.0002 189.1058 0001315 254.0003 106.0704 15.27592500 13182
